0 COSMOS 886 DEB
1 09652U 76126J   13282.08709792  .00002097  00000-0  11851-2 0  2687
2 09652 065.8312 086.9900 0926284 175.2894 290.1078 12.88063121710780
0 COSMOS 886 DEB
1 09652U 76126J   13283.10213891  .00002101  00000-0  11880-2 0  2690
2 09652 065.8315 084.7992 0926218 174.8582 316.8751 12.88066286710910
0 COSMOS 886 DEB
1 09652U 76126J   13283.77278728  .00001163  00000-0  63253-3 0  2715
2 09652 065.8310 083.3544 0926817 174.5756 186.6653 12.88059069711004
0 COSMOS 886 DEB
1 09652U 76126J   13284.48846395  .00002914  00000-0  16311-2 0  2701
2 09652 065.8314 081.8089 0926214 174.2620 265.3242 12.88068972711094
0 COSMOS 886 DEB
1 09652U 76126J   13285.81694971  .00001926  00000-0  10929-2 0  2712
2 09652 065.8314 078.9414 0926059 173.6886 305.5877 12.88077346711262
0 COSMOS 886 DEB
1 09652U 76126J   13286.82521785  .00002224  00000-0  12554-2 0  2725
2 09652 065.8316 076.7647 0926007 173.2614 301.0080 12.88080763711394
0 COSMOS 886 DEB
1 09652U 76126J   13287.82777902  .00003250  00000-0  18164-2 0  2734
2 09652 065.8320 074.6007 0925934 172.8311 269.9862 12.88083592711521
0 COSMOS 886 DEB
1 09652U 76126J   13289.14312984  .00003015  00000-0  16887-2 0  2746
2 09652 065.8325 071.7616 0925821 172.2675 249.4140 12.88091717711690
0 COSMOS 886 DEB
1 09652U 76126J   13290.16855567  .00002359  00000-0  13306-2 0  2753
2 09652 065.8330 069.5486 0925717 171.8283 324.4486 12.88098713711825
0 COSMOS 886 DEB
1 09652U 76126J   13290.76068726  .00003517  00000-0  19206-2 0  2776
2 09652 065.8316 068.2723 0925753 171.5734 190.2570 12.88099228711901
0 COSMOS 886 DEB
1 09652U 76126J   13291.48736845  .00002237  00000-0  12639-2 0  2760
2 09652 065.8332 066.7027 0925648 171.2623 320.0039 12.88107050711991
0 COSMOS 886 DEB
1 09652U 76126J   13292.49675128  .00003005  00000-0  16845-2 0  2776
2 09652 065.8335 064.5243 0925544 170.8310 320.7069 12.88109576712124
0 COSMOS 886 DEB
1 09652U 76126J   13293.82303076  .00002747  00000-0  15446-2 0  2783
2 09652 065.8338 061.6617 0925315 170.2658 350.9307 12.88117549712292
0 COSMOS 886 DEB
1 09652U 76126J   13295.20355544  .00002720  00000-0  15307-2 0  2792
2 09652 065.8338 058.6822 0925154 169.6745 272.7479 12.88125366712473
